NORAD_CAT_ID,OBJECT_NAME,OBJECT_TYPE,EPOCH,MEAN_MOTION,ECCENTRICITY,INCLINATION,RA_OF_ASC_NODE,ARG_OF_PERICENTER,MEAN_ANOMALY,BSTAR,MEAN_MOTION_DOT,MEAN_MOTION_DDOT,TLE_LINE0,TLE_LINE1,TLE_LINE2,SEMIMAJOR_AXIS,PERIOD,APOGEE,PERIGEE,DECAYED
51140.0,STARLINK-3175,PAYLOAD,2022-01-24 16:00:00,15.94540084,0.0053303,53.218,247.5705,183.8887,38.9594,-0.001898,-0.00854497,0.00023629,0 STARLINK-3175,1 51140U 22005AN  22024.66667824 -.00854497  23629-3 -18980-2 0  9997,2 51140  53.2180 247.5705 0053303 183.8887  38.9594 15.94540084  2199,6667.733,90.308,325.139,254.057,0.0
51140.0,STARLINK-3175,PAYLOAD,2022-01-24 22:00:00,15.94104805,0.0051313,53.2176,246.2959,184.157,34.4355,-0.0019899,-0.0086464,0.00024031,0 STARLINK-3175,1 51140U 22005AN  22024.91667824 -.00864640  24031-3 -19899-2 0  9994,2 51140  53.2176 246.2959 0051313 184.1570  34.4355 15.94104805  1375,6668.946999999999,90.333,325.032,256.592,0.0
51140.0,STARLINK-3175,PAYLOAD,2022-01-25 06:00:00,15.9354336,0.004902,53.2173,244.5946,186.2815,146.015,-0.0021989,-0.00914626,0.00026444,0 STARLINK-3175,1 51140U 22005AN  22025.25001157 -.00914626  26444-3 -21989-2 0  9996,2 51140  53.2173 244.5946 0049020 186.2815 146.0150 15.93543360  2282,6670.513000000001,90.365,325.077,259.67900000000003,0.0
51140.0,STARLINK-3175,PAYLOAD,2022-01-25 14:00:01,15.92952483,0.0045829999999999,53.2174,242.8942,187.6912,257.6154,-0.0022761,-0.00902687,0.00025674,0 STARLINK-3175,1 51140U 22005AN  22025.58334491 -.00902687  25674-3 -22761-2 0  9999,2 51140  53.2174 242.8942 0045830 187.6912 257.6154 15.92952483  2336,6672.163000000001,90.398,324.606,263.449,0.0
51140.0,STARLINK-3175,PAYLOAD,2022-01-25 22:00:00,15.92349175,0.0043041,53.2174,241.199,189.8027,7.8131,-0.0022889,-0.00868045,0.00023784,0 STARLINK-3175,1 51140U 22005AN  22025.91667824 -.00868045  23784-3 -22889-2 0  9995,2 51140  53.2174 241.1990 0043041 189.8027   7.8131 15.92349175  2387,6673.848000000001,90.432,324.438,266.988,0.0
51140.0,STARLINK-3175,PAYLOAD,2022-01-26 06:00:00,15.91700172,0.0039823,53.2182,239.5023,193.2702,115.9787,-0.0021336,-0.00772154,0.00019153,0 STARLINK-3175,1 51140U 22005AN  22026.25001157 -.00772154  19153-3 -21336-2 0  9990,2 51140  53.2182 239.5023 0039823 193.2702 115.9787 15.91700172  2448,6675.6619999999975,90.469,324.111,270.942,0.0
51140.0,STARLINK-3175,PAYLOAD,2022-01-26 14:00:01,15.9120033,0.0037421,53.2177,237.8061,193.8612,226.2434,-0.0026214,-0.00914272,0.00025825,0 STARLINK-3175,1 51140U 22005AN  22026.58334491 -.00914272  25825-3 -26214-2 0  9998,2 51140  53.2177 237.8061 0037421 193.8612 226.2434 15.91200330  2494,6677.06,90.498,323.911,273.939,0.0
51140.0,STARLINK-3175,PAYLOAD,2022-01-26 22:00:00,15.90595823,0.0034354,53.2175,236.1151,196.8524,333.4496,-0.0026205,-0.00876563,0.00023797,0 STARLINK-3175,1 51140U 22005AN  22026.91667824 -.00876563  23797-3 -26205-2 0  9990,2 51140  53.2175 236.1151 0034354 196.8524 333.4496 15.90595823  2549,6678.751,90.532,323.561,277.672,0.0
51140.0,STARLINK-3175,PAYLOAD,2022-01-27 04:00:00,15.90158543,0.0032644,53.2172,234.8456,198.4455,324.0381,-0.0027115,-0.00881807,0.00023954,0 STARLINK-3175,1 51140U 22005AN  22027.16667824 -.00881807  23954-3 -27115-2 0  9991,2 51140  53.2172 234.8456 0032644 198.4455 324.0381 15.90158543  2587,6679.976,90.557,323.647,280.035,0.0
51140.0,STARLINK-3175,PAYLOAD,2022-01-27 14:00:01,15.89347015,0.0028676,53.218,232.7317,203.1449,185.4709,-0.0024697,-0.00762699,0.00018317,0 STARLINK-3175,1 51140U 22005AN  22027.58334491 -.00762699  18317-3 -24697-2 0  9994,2 51140  53.2180 232.7317 0028676 203.1449 185.4709 15.89347015  1805,6682.25,90.603,323.277,284.952,0.0
51140.0,STARLINK-3175,PAYLOAD,2022-01-27 22:00:00,15.88844918,0.0026089,53.2177,231.0443,205.0641,291.5866,-0.002981,-0.0089044,0.00024077,0 STARLINK-3175,1 51140U 22005AN  22027.91667824 -.00890440  24077-3 -29810-2 0  9998,2 51140  53.2177 231.0443 0026089 205.0641 291.5866 15.88844918  2700,6683.656999999997,90.632,322.959,288.085,0.0
51140.0,STARLINK-3175,PAYLOAD,2022-01-28 06:00:02,15.88256167,0.0024143,53.2175,229.3554,208.2869,35.8078,-0.0030658,-0.00885108,0.00023686,0 STARLINK-3175,1 51140U 22005AN  22028.25002315 -.00885108  23686-3 -30658-2 0  9996,2 51140  53.2175 229.3554 0024143 208.2869  35.8078 15.88256167  2760,6685.309,90.665,323.314,291.033,0.0
51140.0,STARLINK-3175,PAYLOAD,2022-01-28 10:00:00,15.87970635,0.0022496,53.2173,228.5116,210.5162,266.9337,-0.0031734,-0.0089996,0.00024343,0 STARLINK-3175,1 51140U 22005AN  22028.41667824 -.00899960  24343-3 -31734-2 0  9994,2 51140  53.2173 228.5116 0022496 210.5162 266.9337 15.87970635  2783,6686.11,90.682,323.016,292.934,0.0
51140.0,STARLINK-3175,PAYLOAD,2022-01-28 12:00:00,15.878133800000002,0.0022006,53.2173,228.0899,210.7172,23.3826,-0.0031226,-0.00877964,0.00023247,0 STARLINK-3175,1 51140U 22005AN  22028.50001157 -.00877964  23247-3 -31226-2 0  9993,2 51140  53.2173 228.0899 0022006 210.7172  23.3826 15.87813380  1944,6686.552,90.691,323.131,293.702,0.0
51140.0,STARLINK-3175,PAYLOAD,2022-01-28 20:00:01,15.8724658,0.0019252,53.2173,226.4073,216.3653,123.8702,-0.0033763,-0.00917995,0.00025063,0 STARLINK-3175,1 51140U 22005AN  22028.83334491 -.00917995  25063-3 -33763-2 0  9994,2 51140  53.2173 226.4073 0019252 216.3653 123.8702 15.87246580  2857,6688.143,90.723,322.884,297.132,0.0
51140.0,STARLINK-3175,PAYLOAD,2022-01-28 22:00:00,15.87026778,0.001918,53.2182,225.9875,217.3732,239.3215,-0.0029504,-0.00794397,0.0001928,0 STARLINK-3175,1 51140U 22005AN  22028.91667824 -.00794397  19280-3 -29504-2 0  9993,2 51140  53.2182 225.9875 0019180 217.3732 239.3215 15.87026778  2015,6688.761,90.736,323.455,297.797,0.0
51140.0,STARLINK-3175,PAYLOAD,2022-01-29 14:00:01,15.85922145,0.0014555999999999,53.2178,222.62,228.7876,77.6996,-0.0035704,-0.00826977,0.0,0 STARLINK-3175,1 51140U 22005AN  22029.58334491 -.00826977  00000-0 -35704-2 0  9994,2 51140  53.2178 222.6200 0014556 228.7876  77.6996 15.85922145  2978,6691.866,90.799,323.472,303.991,0.0
51140.0,STARLINK-3175,PAYLOAD,2022-01-29 22:00:00,15.8534451,0.0012369,53.2176,220.9421,238.611,171.7277,-0.003758,-0.00842033,0.0,0 STARLINK-3175,1 51140U 22005AN  22029.91667824 -.00842033  00000-0 -37580-2 0  9995,2 51140  53.2176 220.9421 0012369 238.6110 171.7277 15.85344510  2177,6693.4919999999975,90.832,323.636,307.078,0.0
51140.0,STARLINK-3175,PAYLOAD,2022-01-30 06:00:00,15.84745839,0.0010577,53.2174,219.2617,249.6656,263.8298,-0.0037608,-0.00818716,0.0,0 STARLINK-3175,1 51140U 22005AN  22030.25001157 -.00818716  00000-0 -37608-2 0  9997,2 51140  53.2174 219.2617 0010577 249.6656 263.8298 15.84745839  3073,6695.177,90.866,324.124,309.961,0.0
51140.0,STARLINK-3175,PAYLOAD,2022-01-30 14:00:01,15.84154465,0.0008988,53.2175,217.5843,260.6116,355.3329,-0.0038191,-0.0080756,0.0,0 STARLINK-3175,1 51140U 22005AN  22030.58334491 -.00807560  00000-0 -38191-2 0  9996,2 51140  53.2175 217.5843 0008988 260.6116 355.3329 15.84154465  2286,6696.844,90.9,324.728,312.689,0.0
51140.0,STARLINK-3175,PAYLOAD,2022-01-30 22:00:00,15.83573736,0.0007003,53.2176,215.9104,269.0268,88.6581,-0.0039842,-0.00816887,0.0,0 STARLINK-3175,1 51140U 22005AN  22030.91667824 -.00816887  00000-0 -39842-2 0  9998,2 51140  53.2176 215.9104 0007003 269.0268  88.6581 15.83573736  2334,6698.481,90.934,325.0370000000001,315.655,0.0
51140.0,STARLINK-3175,PAYLOAD,2022-01-31 06:00:00,15.83001844,0.0004576,53.2176,214.2342,270.0554,188.665,-0.0042309,-0.00840269,0.0,0 STARLINK-3175,1 51140U 22005AN  22031.25001157 -.00840269  00000-0 -42309-2 0  9990,2 51140  53.2176 214.2342 0004576 270.0554 188.6650 15.83001844  3236,6700.094,90.966,325.025,318.893,0.0
51140.0,STARLINK-3175,PAYLOAD,2022-01-31 14:00:01,15.82405665,0.0002454,53.2178,212.5614,222.2814,336.8436,-0.0042543,-0.00822073,0.0,0 STARLINK-3175,1 51140U 22005AN  22031.58335648 -.00822073  00000-0 -42543-2 0  9994,2 51140  53.2178 212.5614 0002454 222.2814 336.8436 15.82405665  2441,6701.776999999999,91.001,325.286,321.997,0.0
51140.0,STARLINK-3175,PAYLOAD,2022-01-31 22:00:01,15.81811047,3.12e-05,53.2174,210.8919,309.6699,349.0883,-0.0042869,-0.00806268,0.0,0 STARLINK-3175,1 51140U 22005AN  22031.91668981 -.00806268  00000-0 -42869-2 0  9999,2 51140  53.2174 210.8919 0000312 309.6699 349.0883 15.81811047  2499,6703.456,91.035,325.53,325.112,0.0
51140.0,STARLINK-3175,PAYLOAD,2022-02-01 06:00:00,15.81233683,8.23e-05,53.2174,209.22,75.6083,322.0092,-0.0044896,-0.00820634,0.0,0 STARLINK-3175,1 51140U 22005AN  22032.25001157 -.00820634  00000-0 -44896-2 0  9998,2 51140  53.2174 209.2200 0000823  75.6083 322.0092 15.81233683  3395,6705.0880000000025,91.068,327.505,326.401,0.0
51140.0,STARLINK-3175,PAYLOAD,2022-02-01 14:00:01,15.80546201,0.0001256,53.2181,207.5524,72.5912,63.3689,-0.0038276,-0.00688323,0.0,0 STARLINK-3175,1 51140U 22005AN  22032.58335648 -.00688323  00000-0 -38276-2 0  9991,2 51140  53.2181 207.5524 0001256  72.5912  63.3689 15.80546201  2603,6707.031999999997,91.108,329.7390000000001,328.055,0.0
51140.0,STARLINK-3175,PAYLOAD,2022-02-01 22:00:00,15.79946483,0.0001295,53.2182,205.8877,73.7013,159.7171,-0.0038134,-0.00668597,0.0,0 STARLINK-3175,1 51140U 22005AN  22032.91667824 -.00668597  00000-0 -38134-2 0  9996,2 51140  53.2182 205.8877 0001295  73.7013 159.7171 15.79946483  2659,6708.729,91.142,331.463,329.725,0.0
51140.0,STARLINK-3175,PAYLOAD,2022-02-02 06:00:00,15.79476937,0.000102,53.2175,204.2185,71.3465,258.827,-0.0048769,-0.00821784,0.0,0 STARLINK-3175,1 51140U 22005AN  22033.25001157 -.00821784  00000-0 -48769-2 0  9999,2 51140  53.2175 204.2185 0001020  71.3465 258.8270 15.79476937  3550,6710.059,91.169,332.608,331.2390000000001,0.0
51140.0,STARLINK-3175,PAYLOAD,2022-02-02 14:00:01,15.78891787,0.0001222,53.2175,202.5549,48.4604,17.8234,-0.0050167,-0.00822968,0.0,0 STARLINK-3175,1 51140U 22005AN  22033.58334491 -.00822968  00000-0 -50167-2 0  9995,2 51140  53.2175 202.5549 0001222  48.4604  17.8234 15.78891787  2767,6711.715999999999,91.203,334.402,332.761,0.0
